{"fetched_at":"2026-03-29T02:12:04Z","count":15717,"tles":[{"name":"STARLINK-35733","line1":"1 66224U 25244U   26087.55665226  .00025341  00000+0  86472-3 0  9991","line2":"2 66224  53.1592 142.5932 0001244  83.3055 276.8087 15.30202515 24545","category":"Starlink"}]}