{
  "norad_id": 66224,
  "name": "STARLINK-35733",
  "history": [
    {
      "epoch": "2026-03-28T13:21:34.755264",
      "apogee_km": 476.060801490672,
      "perigee_km": 474.35431869520926,
      "latitude_deg": -52.75516818086301,
      "longitude_deg": 135.83861695998348,
      "semi_major_axis_km": 6853.34456009294,
      "eccentricity": 0.0001245,
      "inclination_deg": 53.1592,
      "raan_deg": 142.5932,
      "arg_perigee_deg": 83.3055,
      "mean_anomaly_deg": 276.8087,
      "mean_motion_rev_day": 15.30202515
    }
  ]
}